STARLINK-31344          
1 59171U 24044V   26068.17447794  .00004648  00000+0  17850-3 0  9997
2 59171  43.0007 110.1981 0001119 183.9546 176.1297 15.27545255113513
FLOCK 4G-1              
1 62666U 25009BK  26068.75951132  .00013534  00000+0  50654-3 0  9995
2 62666  97.4059 151.3158 0003180 323.1401  36.9619 15.27421081 63725
